[{"OBJECT_NAME":"STARLINK-32175","OBJECT_ID":"2024-136L","EPOCH":"2026-03-09T10:12:22.126176","MEAN_MOTION":15.30196907,"ECCENTRICITY":0.0001314,"INCLINATION":53.1602,"RA_OF_ASC_NODE":76.9225,"ARG_OF_PERICENTER":84.2758,"MEAN_ANOMALY":275.8392,"EPHEMERIS_TYPE":0,"CLASSIFICATION_TYPE":"U","NORAD_CAT_ID":60339,"ELEMENT_SET_NO":999,"REV_AT_EPOCH":8962,"BSTAR":-3.5626797e-5,"MEAN_MOTION_DOT":-1.414e-5,"MEAN_MOTION_DDOT":0},{"OBJECT_NAME":"YAOGAN-43 01F","OBJECT_ID":"2024-148F","EPOCH":"2026-03-10T00:23:08.877408","MEAN_MOTION":15.29824616,"ECCENTRICITY":0.00057048,"INCLINATION":34.9925,"RA_OF_ASC_NODE":59.8891,"ARG_OF_PERICENTER":18.4862,"MEAN_ANOMALY":341.6062,"EPHEMERIS_TYPE":0,"CLASSIFICATION_TYPE":"U","NORAD_CAT_ID":60463,"ELEMENT_SET_NO":999,"REV_AT_EPOCH":8707,"BSTAR":0.00058388219,"MEAN_MOTION_DOT":0.00017308,"MEAN_MOTION_DDOT":0}]
